CCSDS_OMM_VERS = 2.0
CREATION_DATE  = 
ORIGINATOR     = 

OBJECT_NAME    = TWILIGHT K
OBJECT_ID      = 2026-004K
CENTER_NAME    = EARTH
REF_FRAME      = TEME
TIME_SYSTEM    = UTC
MEAN_ELEMENT_THEORY = SGP/SGP4

EPOCH          = 2026-01-28T23:08:01.632192
MEAN_MOTION    = 14.87951374
ECCENTRICITY   = .00031893
INCLINATION    = 97.7969
RA_OF_ASC_NODE = 29.8416
ARG_OF_PERICENTER = 211.9236
MEAN_ANOMALY   = 148.1788

EPHEMERIS_TYPE = 0
CLASSIFICATION_TYPE = U
NORAD_CAT_ID   = 67372
ELEMENT_SET_NO = 999
REV_AT_EPOCH   = 259
BSTAR          = .37717127E-3
MEAN_MOTION_DOT = .3404E-4
MEAN_MOTION_DDOT = 0

CCSDS_OMM_VERS = 2.0
CREATION_DATE  = 
ORIGINATOR     = 

OBJECT_NAME    = TWILIGHT L
OBJECT_ID      = 2026-004L
CENTER_NAME    = EARTH
REF_FRAME      = TEME
TIME_SYSTEM    = UTC
MEAN_ELEMENT_THEORY = SGP/SGP4

EPOCH          = 2026-01-28T23:14:37.080672
MEAN_MOTION    = 14.87556822
ECCENTRICITY   = .00047737
INCLINATION    = 97.7982
RA_OF_ASC_NODE = 29.8375
ARG_OF_PERICENTER = 225.4169
MEAN_ANOMALY   = 134.6658

EPHEMERIS_TYPE = 0
CLASSIFICATION_TYPE = U
NORAD_CAT_ID   = 67373
ELEMENT_SET_NO = 999
REV_AT_EPOCH   = 259
BSTAR          = .38897028E-3
MEAN_MOTION_DOT = .3478E-4
MEAN_MOTION_DDOT = 0

CCSDS_OMM_VERS = 2.0
CREATION_DATE  = 
ORIGINATOR     = 

OBJECT_NAME    = TWILIGHT M
OBJECT_ID      = 2026-004M
CENTER_NAME    = EARTH
REF_FRAME      = TEME
TIME_SYSTEM    = UTC
MEAN_ELEMENT_THEORY = SGP/SGP4

EPOCH          = 2026-01-28T23:09:10.922400
MEAN_MOTION    = 14.87906125
ECCENTRICITY   = .00034532
INCLINATION    = 97.7968
RA_OF_ASC_NODE = 29.8393
ARG_OF_PERICENTER = 212.9516
MEAN_ANOMALY   = 147.1485

EPHEMERIS_TYPE = 0
CLASSIFICATION_TYPE = U
NORAD_CAT_ID   = 67374
ELEMENT_SET_NO = 999
REV_AT_EPOCH   = 259
BSTAR          = .47293417E-3
MEAN_MOTION_DOT = .4278E-4
MEAN_MOTION_DDOT = 0

CCSDS_OMM_VERS = 2.0
CREATION_DATE  = 
ORIGINATOR     = 

OBJECT_NAME    = TWILIGHT N
OBJECT_ID      = 2026-004N
CENTER_NAME    = EARTH
REF_FRAME      = TEME
TIME_SYSTEM    = UTC
MEAN_ELEMENT_THEORY = SGP/SGP4

EPOCH          = 2026-01-28T23:08:43.849824
MEAN_MOTION    = 14.87934292
ECCENTRICITY   = .00040581
INCLINATION    = 97.8005
RA_OF_ASC_NODE = 29.8462
ARG_OF_PERICENTER = 207.5874
MEAN_ANOMALY   = 152.5128

EPHEMERIS_TYPE = 0
CLASSIFICATION_TYPE = U
NORAD_CAT_ID   = 67375
ELEMENT_SET_NO = 999
REV_AT_EPOCH   = 259
BSTAR          = .49304164E-3
MEAN_MOTION_DOT = .4465E-4
MEAN_MOTION_DDOT = 0

CCSDS_OMM_VERS = 2.0
CREATION_DATE  = 
ORIGINATOR     = 

OBJECT_NAME    = TWILIGHT P
OBJECT_ID      = 2026-004P
CENTER_NAME    = EARTH
REF_FRAME      = TEME
TIME_SYSTEM    = UTC
MEAN_ELEMENT_THEORY = SGP/SGP4

EPOCH          = 2026-01-28T23:11:10.587264
MEAN_MOTION    = 14.87782131
ECCENTRICITY   = .00043822
INCLINATION    = 97.8001
RA_OF_ASC_NODE = 29.8429
ARG_OF_PERICENTER = 214.4168
MEAN_ANOMALY   = 145.6766

EPHEMERIS_TYPE = 0
CLASSIFICATION_TYPE = U
NORAD_CAT_ID   = 67376
ELEMENT_SET_NO = 999
REV_AT_EPOCH   = 259
BSTAR          = .37018184E-3
MEAN_MOTION_DOT = .3326E-4
MEAN_MOTION_DDOT = 0

CCSDS_OMM_VERS = 2.0
CREATION_DATE  = 
ORIGINATOR     = 

OBJECT_NAME    = TWILIGHT Q
OBJECT_ID      = 2026-004Q
CENTER_NAME    = EARTH
REF_FRAME      = TEME
TIME_SYSTEM    = UTC
MEAN_ELEMENT_THEORY = SGP/SGP4

EPOCH          = 2026-01-28T23:08:24.745920
MEAN_MOTION    = 14.88131497
ECCENTRICITY   = .00044834
INCLINATION    = 97.8003
RA_OF_ASC_NODE = 29.8460
ARG_OF_PERICENTER = 232.9061
MEAN_ANOMALY   = 127.1746

EPHEMERIS_TYPE = 0
CLASSIFICATION_TYPE = U
NORAD_CAT_ID   = 67377
ELEMENT_SET_NO = 999
REV_AT_EPOCH   = 258
BSTAR          = .90646143E-2
MEAN_MOTION_DOT = .84412E-3
MEAN_MOTION_DDOT = 0

CCSDS_OMM_VERS = 2.0
CREATION_DATE  = 
ORIGINATOR     = 

OBJECT_NAME    = TWILIGHT R
OBJECT_ID      = 2026-004R
CENTER_NAME    = EARTH
REF_FRAME      = TEME
TIME_SYSTEM    = UTC
MEAN_ELEMENT_THEORY = SGP/SGP4

EPOCH          = 2026-01-28T21:35:34.821312
MEAN_MOTION    = 14.87708733
ECCENTRICITY   = .0003782
INCLINATION    = 97.7975
RA_OF_ASC_NODE = 29.7715
ARG_OF_PERICENTER = 225.1695
MEAN_ANOMALY   = 134.9215

EPHEMERIS_TYPE = 0
CLASSIFICATION_TYPE = U
NORAD_CAT_ID   = 67378
ELEMENT_SET_NO = 999
REV_AT_EPOCH   = 257
BSTAR          = .4885511E-3
MEAN_MOTION_DOT = .4399E-4
MEAN_MOTION_DDOT = 0

CCSDS_OMM_VERS = 2.0
CREATION_DATE  = 
ORIGINATOR     = 

OBJECT_NAME    = TWILIGHT S
OBJECT_ID      = 2026-004S
CENTER_NAME    = EARTH
REF_FRAME      = TEME
TIME_SYSTEM    = UTC
MEAN_ELEMENT_THEORY = SGP/SGP4

EPOCH          = 2026-01-28T23:12:13.997952
MEAN_MOTION    = 14.87718892
ECCENTRICITY   = .00043034
INCLINATION    = 97.7979
RA_OF_ASC_NODE = 29.8394
ARG_OF_PERICENTER = 220.8022
MEAN_ANOMALY   = 139.2873

EPHEMERIS_TYPE = 0
CLASSIFICATION_TYPE = U
NORAD_CAT_ID   = 67379
ELEMENT_SET_NO = 999
REV_AT_EPOCH   = 258
BSTAR          = .46144643E-3
MEAN_MOTION_DOT = .4153E-4
MEAN_MOTION_DDOT = 0

CCSDS_OMM_VERS = 2.0
CREATION_DATE  = 
ORIGINATOR     = 

OBJECT_NAME    = TWILIGHT T
OBJECT_ID      = 2026-004T
CENTER_NAME    = EARTH
REF_FRAME      = TEME
TIME_SYSTEM    = UTC
MEAN_ELEMENT_THEORY = SGP/SGP4

EPOCH          = 2026-01-28T23:10:44.482368
MEAN_MOTION    = 14.87819912
ECCENTRICITY   = .00038268
INCLINATION    = 97.7971
RA_OF_ASC_NODE = 29.8392
ARG_OF_PERICENTER = 219.1621
MEAN_ANOMALY   = 140.9319

EPHEMERIS_TYPE = 0
CLASSIFICATION_TYPE = U
NORAD_CAT_ID   = 67380
ELEMENT_SET_NO = 999
REV_AT_EPOCH   = 258
BSTAR          = .64948475E-3
MEAN_MOTION_DOT = .5883E-4
MEAN_MOTION_DDOT = 0

CCSDS_OMM_VERS = 2.0
CREATION_DATE  = 
ORIGINATOR     = 

OBJECT_NAME    = TWILIGHT U
OBJECT_ID      = 2026-004U
CENTER_NAME    = EARTH
REF_FRAME      = TEME
TIME_SYSTEM    = UTC
MEAN_ELEMENT_THEORY = SGP/SGP4

EPOCH          = 2026-01-28T23:08:26.968128
MEAN_MOTION    = 14.87956921
ECCENTRICITY   = .00041796
INCLINATION    = 97.8008
RA_OF_ASC_NODE = 29.8480
ARG_OF_PERICENTER = 207.8304
MEAN_ANOMALY   = 152.2690

EPHEMERIS_TYPE = 0
CLASSIFICATION_TYPE = U
NORAD_CAT_ID   = 67381
ELEMENT_SET_NO = 999
REV_AT_EPOCH   = 258
BSTAR          = .54800966E-3
MEAN_MOTION_DOT = .4972E-4
MEAN_MOTION_DDOT = 0

CCSDS_OMM_VERS = 2.0
CREATION_DATE  = 
ORIGINATOR     = 

OBJECT_NAME    = TWILIGHT V
OBJECT_ID      = 2026-004V
CENTER_NAME    = EARTH
REF_FRAME      = TEME
TIME_SYSTEM    = UTC
MEAN_ELEMENT_THEORY = SGP/SGP4

EPOCH          = 2026-01-28T23:07:23.775168
MEAN_MOTION    = 14.88008486
ECCENTRICITY   = .00037695
INCLINATION    = 97.8000
RA_OF_ASC_NODE = 29.8462
ARG_OF_PERICENTER = 202.5582
MEAN_ANOMALY   = 157.5470

EPHEMERIS_TYPE = 0
CLASSIFICATION_TYPE = U
NORAD_CAT_ID   = 67382
ELEMENT_SET_NO = 999
REV_AT_EPOCH   = 258
BSTAR          = .38896795E-3
MEAN_MOTION_DOT = .3517E-4
MEAN_MOTION_DDOT = 0

CCSDS_OMM_VERS = 2.0
CREATION_DATE  = 
ORIGINATOR     = 

OBJECT_NAME    = TWILIGHT W
OBJECT_ID      = 2026-004W
CENTER_NAME    = EARTH
REF_FRAME      = TEME
TIME_SYSTEM    = UTC
MEAN_ELEMENT_THEORY = SGP/SGP4

EPOCH          = 2026-01-28T23:12:00.534240
MEAN_MOTION    = 14.87734068
ECCENTRICITY   = .00041284
INCLINATION    = 97.7975
RA_OF_ASC_NODE = 29.8391
ARG_OF_PERICENTER = 221.7353
MEAN_ANOMALY   = 138.3549

EPHEMERIS_TYPE = 0
CLASSIFICATION_TYPE = U
NORAD_CAT_ID   = 67383
ELEMENT_SET_NO = 999
REV_AT_EPOCH   = 258
BSTAR          = .43688505E-3
MEAN_MOTION_DOT = .393E-4
MEAN_MOTION_DDOT = 0

