TWILIGHT K              
1 67372U 26004K   26028.96390778  .00003404  00000+0  37717-3 0  9992
2 67372  97.7969  29.8416 0003189 211.9236 148.1788 14.87951374  2591
TWILIGHT L              
1 67373U 26004L   26028.96848473  .00003478  00000+0  38897-3 0  9994
2 67373  97.7982  29.8375 0004773 225.4169 134.6658 14.87556822  2591
TWILIGHT M              
1 67374U 26004M   26028.96470975  .00004278  00000+0  47293-3 0  9992
2 67374  97.7968  29.8393 0003453 212.9516 147.1485 14.87906125  2599
TWILIGHT N              
1 67375U 26004N   26028.96439641  .00004465  00000+0  49304-3 0  9991
2 67375  97.8005  29.8462 0004058 207.5874 152.5128 14.87934292  2599
TWILIGHT P              
1 67376U 26004P   26028.96609476  .00003326  00000+0  37018-3 0  9991
2 67376  97.8001  29.8429 0004382 214.4168 145.6766 14.87782131  2596
TWILIGHT Q              
1 67377U 26004Q   26028.96417530  .00084412  00000+0  90646-2 0  9990
2 67377  97.8003  29.8460 0004483 232.9061 127.1746 14.88131497  2589
TWILIGHT R              
1 67378U 26004R   26028.89970858  .00004399  00000+0  48855-3 0  9992
2 67378  97.7975  29.7715 0003782 225.1695 134.9215 14.87708733  2575
TWILIGHT S              
1 67379U 26004S   26028.96682868  .00004153  00000+0  46145-3 0  9990
2 67379  97.7979  29.8394 0004303 220.8022 139.2873 14.87718892  2586
TWILIGHT T              
1 67380U 26004T   26028.96579262  .00005883  00000+0  64948-3 0  9997
2 67380  97.7971  29.8392 0003826 219.1621 140.9319 14.87819912  2582
TWILIGHT U              
1 67381U 26004U   26028.96420102  .00004972  00000+0  54801-3 0  9991
2 67381  97.8008  29.8480 0004179 207.8304 152.2690 14.87956921  2587
TWILIGHT V              
1 67382U 26004V   26028.96346962  .00003517  00000+0  38897-3 0  9994
2 67382  97.8000  29.8462 0003769 202.5582 157.5470 14.88008486  2583
TWILIGHT W              
1 67383U 26004W   26028.96667285  .00003930  00000+0  43689-3 0  9993
2 67383  97.7975  29.8391 0004128 221.7353 138.3549 14.87734068  2589
